[{"OBJECT_NAME":"ONEWEB-0012","OBJECT_ID":"2019-010A","EPOCH":"2026-04-04T03:44:50.486496","MEAN_MOTION":13.16595096,"ECCENTRICITY":0.0001768,"INCLINATION":87.9045,"RA_OF_ASC_NODE":243.4965,"ARG_OF_PERICENTER":113.5009,"MEAN_ANOMALY":246.6308,"EPHEMERIS_TYPE":0,"CLASSIFICATION_TYPE":"U","NORAD_CAT_ID":44057,"ELEMENT_SET_NO":999,"REV_AT_EPOCH":34182,"BSTAR":-3.0756e-05,"MEAN_MOTION_DOT":1e-08,"MEAN_MOTION_DDOT":0.0},{"OBJECT_NAME":"ONEWEB-0010","OBJECT_ID":"2019-010B","EPOCH":"2026-04-03T22:53:00.957984","MEAN_MOTION":13.16595214,"ECCENTRICITY":0.0002048,"INCLINATION":87.9044,"RA_OF_ASC_NODE":243.5328,"ARG_OF_PERICENTER":93.2658,"MEAN_ANOMALY":266.8708,"EPHEMERIS_TYPE":0,"CLASSIFICATION_TYPE":"U","NORAD_CAT_ID":44058,"ELEMENT_SET_NO":999,"REV_AT_EPOCH":34184,"BSTAR":2.2157e-05,"MEAN_MOTION_DOT":2.1e-07,"MEAN_MOTION_DDOT":0.0},{"OBJECT_NAME":"ONEWEB-0008","OBJECT_ID":"2019-010C","EPOCH":"2026-04-03T21:40:03.308448","MEAN_MOTION":13.16595404,"ECCENTRICITY":0.0001557,"INCLINATION":87.904,"RA_OF_ASC_NODE":243.5394,"ARG_OF_PERICENTER":98.5747,"MEAN_ANOMALY":261.556,"EPHEMERIS_TYPE":0,"CLASSIFICATION_TYPE":"U","NORAD_CAT_ID":44059,"ELEMENT_SET_NO":999,"REV_AT_EPOCH":34195,"BSTAR":-0.0001594,"MEAN_MOTION_DOT":-4.8e-07,"MEAN_MOTION_DDOT":0.0},{"OBJECT_NAME":"ONEWEB-0007","OBJECT_ID":"2019-010D","EPOCH":"2026-04-04T00:44:41.549280","MEAN_MOTION":13.15548577,"ECCENTRICITY":0.000201,"INCLINATION":87.8925,"RA_OF_ASC_NODE":274.0227,"ARG_OF_PERICENTER":98.4922,"MEAN_ANOMALY":261.6437,"EPHEMERIS_TYPE":0,"CLASSIFICATION_TYPE":"U","NORAD_CAT_ID":44060,"ELEMENT_SET_NO":999,"REV_AT_EPOCH":34162,"BSTAR":0.0004698,"MEAN_MOTION_DOT":1.9e-06,"MEAN_MOTION_DDOT":0.0},{"OBJECT_NAME":"ONEWEB-0006","OBJECT_ID":"2019-010E","EPOCH":"2026-04-04T04:29:26.551104","MEAN_MOTION":13.15549178,"ECCENTRICITY":0.0001944,"INCLINATION":87.8936,"RA_OF_ASC_NODE":273.9481,"ARG_OF_PERICENTER":92.3121,"MEAN_ANOMALY":267.8232,"EPHEMERIS_TYPE":0,"CLASSIFICATION_TYPE":"U","NORAD_CAT_ID":44061,"ELEMENT_SET_NO":999,"REV_AT_EPOCH":34169,"BSTAR":0.00028335,"MEAN_MOTION_DOT":1.2e-06,"MEAN_MOTION_DDOT":0.0},{"OBJECT_NAME":"ONEWEB-0011","OBJECT_ID":"2019-010F","EPOCH":"2026-04-04T00:04:44.927328","MEAN_MOTION":13.15549061,"ECCENTRICITY":0.0001745,"INCLINATION":87.8937,"RA_OF_ASC_NODE":273.9931,"ARG_OF_PERICENTER":87.0903,"MEAN_ANOMALY":273.0427,"EPHEMERIS_TYPE":0,"CLASSIFICATION_TYPE":"U","NORAD_CAT_ID":44062,"ELEMENT_SET_NO":999,"REV_AT_EPOCH":34166,"BSTAR":-5.1574e-05,"MEAN_MOTION_DOT":-7e-08,"MEAN_MOTION_DDOT":0.0},{"OBJECT_NAME":"ONEWEB-0013","OBJECT_ID":"2020-008A","EPOCH":"2026-04-04T06:44:01.163328","MEAN_MOTION":13.09454969,"ECCENTRICITY":0.0001709,"INCLINATION":87.848,"RA_OF_ASC_NODE":67.733,"ARG_OF_PERICENTER":114.8498,"MEAN_ANOMALY":245.2807,"EPHEMERIS_TYPE":0,"CLASSIFICATION_TYPE":"U","NORAD_CAT_ID":45131,"ELEMENT_SET_NO":999,"REV_AT_EPOCH":29639,"BSTAR":0.00074212,"MEAN_MOTION_DOT":2.68e-06,"MEAN_MOTION_DDOT":0.0},{"OBJECT_NAME":"ONEWEB-0017","OBJECT_ID":"2020-008B","EPOCH":"2026-04-04T05:43:16.517568","MEAN_MOTION":13.10375663,"ECCENTRICITY":0.0002085,"INCLINATION":87.882,"RA_OF_ASC_NODE":50.9848,"ARG_OF_PERICENTER":77.5034,"MEAN_ANOMALY":282.6327,"EPHEMERIS_TYPE":0,"CLASSIFICATION_TYPE":"U","NORAD_CAT_ID":45132,"ELEMENT_SET_NO":999,"REV_AT_EPOCH":29826,"BSTAR":0.0008023,"MEAN_MOTION_DOT":2.93e-06,"MEAN_MOTION_DDOT":0.0},{"OBJECT_NAME":"ONEWEB-0020","OBJECT_ID":"2020-008C","EPOCH":"2026-04-04T06:50:10.314240","MEAN_MOTION":13.10373479,"ECCENTRICITY":0.0001877,"INCLINATION":87.8824,"RA_OF_ASC_NODE":50.9682,"ARG_OF_PERICENTER":81.464,"MEAN_ANOMALY":278.6701,"EPHEMERIS_TYPE":0,"CLASSIFICATION_TYPE":"U","NORAD_CAT_ID":45133,"ELEMENT_SET_NO":999,"REV_AT_EPOCH":29866,"BSTAR":-0.0015409,"MEAN_MOTION_DOT":-5.25e-06,"MEAN_MOTION_DDOT":0.0},{"OBJECT_NAME":"ONEWEB-0021","OBJECT_ID":"2020-008D","EPOCH":"2026-04-03T20:11:57.420384","MEAN_MOTION":13.1037694,"ECCENTRICITY":0.0001941,"INCLINATION":87.8822,"RA_OF_ASC_NODE":51.0789,"ARG_OF_PERICENTER":83.568,"MEAN_ANOMALY":276.5668,"EPHEMERIS_TYPE":0,"CLASSIFICATION_TYPE":"U","NORAD_CAT_ID":45134,"ELEMENT_SET_NO":999,"REV_AT_EPOCH":29891,"BSTAR":-0.0008820200000000001,"MEAN_MOTION_DOT":-2.95e-06,"MEAN_MOTION_DDOT":0.0},{"OBJECT_NAME":"ONEWEB-0023","OBJECT_ID":"2020-008F","EPOCH":"2026-04-04T05:37:17.523840","MEAN_MOTION":13.10375064,"ECCENTRICITY":0.0001822,"INCLINATION":87.8824,"RA_OF_ASC_NODE":50.9796,"ARG_OF_PERICENTER":85.2386,"MEAN_ANOMALY":274.895,"EPHEMERIS_TYPE":0,"CLASSIFICATION_TYPE":"U","NORAD_CAT_ID":45136,"ELEMENT_SET_NO":999,"REV_AT_EPOCH":29839,"BSTAR":0.00018743,"MEAN_MOTION_DOT":7.8e-07,"MEAN_MOTION_DDOT":0.0},{"OBJECT_NAME":"ONEWEB-0024","OBJECT_ID":"2020-008G","EPOCH":"2026-04-03T21:38:00.532320","MEAN_MOTION":13.10372841,"ECCENTRICITY":0.0001912,"INCLINATION":87.8822,"RA_OF_ASC_NODE":51.0343,"ARG_OF_PERICENTER":81.1703,"MEAN_ANOMALY":278.9641,"EPHEMERIS_TYPE":0,"CLASSIFICATION_TYPE":"U","NORAD_CAT_ID":45137,"ELEMENT_SET_NO":999,"REV_AT_EPOCH":29851,"BSTAR":-0.0018826000000000001,"MEAN_MOTION_DOT":-6.44e-06,"MEAN_MOTION_DDOT":0.0},{"OBJECT_NAME":"ONEWEB-0025","OBJECT_ID":"2020-008H","EPOCH":"2026-04-04T06:44:41.855136","MEAN_MOTION":13.10875759,"ECCENTRICITY":0.0001862,"INCLINATION":87.8824,"RA_OF_ASC_NODE":50.9453,"ARG_OF_PERICENTER":91.6624,"MEAN_ANOMALY":268.4717,"EPHEMERIS_TYPE":0,"CLASSIFICATION_TYPE":"U","NORAD_CAT_ID":45138,"ELEMENT_SET_NO":999,"REV_AT_EPOCH":29889,"BSTAR":-0.0011136,"MEAN_MOTION_DOT":-3.79e-06,"MEAN_MOTION_DDOT":0.0},{"OBJECT_NAME":"ONEWEB-0026","OBJECT_ID":"2020-008J","EPOCH":"2026-04-04T05:26:52.436256","MEAN_MOTION":13.11416214,"ECCENTRICITY":0.0001921,"INCLINATION":87.891,"RA_OF_ASC_NODE":35.7668,"ARG_OF_PERICENTER":74.6142,"MEAN_ANOMALY":285.5198,"EPHEMERIS_TYPE":0,"CLASSIFICATION_TYPE":"U","NORAD_CAT_ID":45139,"ELEMENT_SET_NO":999,"REV_AT_EPOCH":30141,"BSTAR":5.8419000000000004e-05,"MEAN_MOTION_DOT":3.3e-07,"MEAN_MOTION_DDOT":0.0},{"OBJECT_NAME":"ONEWEB-0028","OBJECT_ID":"2020-008K","EPOCH":"2026-04-04T06:14:28.053888","MEAN_MOTION":13.11424213,"ECCENTRICITY":0.0001618,"INCLINATION":87.8902,"RA_OF_ASC_NODE":35.7659,"ARG_OF_PERICENTER":98.1384,"MEAN_ANOMALY":261.9928,"EPHEMERIS_TYPE":0,"CLASSIFICATION_TYPE":"U","NORAD_CAT_ID":45140,"ELEMENT_SET_NO":999,"REV_AT_EPOCH":29893,"BSTAR":0.00059468,"MEAN_MOTION_DOT":2.23e-06,"MEAN_MOTION_DDOT":0.0},{"OBJECT_NAME":"ONEWEB-0032","OBJECT_ID":"2020-008L","EPOCH":"2026-04-04T05:45:39.185568","MEAN_MOTION":13.10376412,"ECCENTRICITY":0.0001601,"INCLINATION":87.882,"RA_OF_ASC_NODE":50.9856,"ARG_OF_PERICENTER":96.2023,"MEAN_ANOMALY":263.9286,"EPHEMERIS_TYPE":0,"CLASSIFICATION_TYPE":"U","NORAD_CAT_ID":45141,"ELEMENT_SET_NO":999,"REV_AT_EPOCH":29861,"BSTAR":0.00092297,"MEAN_MOTION_DOT":3.35e-06,"MEAN_MOTION_DDOT":0.0}]