ONEWEB-0012             
1 44057U 19010A   26094.15613989  .00000001  00000+0 -30756-4 0  9990
2 44057  87.9045 243.4965 0001768 113.5009 246.6308 13.16595096341821
ONEWEB-0010             
1 44058U 19010B   26093.95348331  .00000021  00000+0  22157-4 0  9991
2 44058  87.9044 243.5328 0002048  93.2658 266.8708 13.16595214341843
ONEWEB-0008             
1 44059U 19010C   26093.90281607 -.00000048  00000+0 -15940-3 0  9991
2 44059  87.9040 243.5394 0001557  98.5747 261.5560 13.16595404341955
ONEWEB-0007             
1 44060U 19010D   26094.03103645  .00000190  00000+0  46980-3 0  9997
2 44060  87.8925 274.0227 0002010  98.4922 261.6437 13.15548577341627
ONEWEB-0006             
1 44061U 19010E   26094.18711286  .00000120  00000+0  28335-3 0  9997
2 44061  87.8936 273.9481 0001944  92.3121 267.8232 13.15549178341695
ONEWEB-0011             
1 44062U 19010F   26094.00329777 -.00000007  00000+0 -51574-4 0  9997
2 44062  87.8937 273.9931 0001745  87.0903 273.0427 13.15549061341668
ONEWEB-0013             
1 45131U 20008A   26094.28056902  .00000268  00000+0  74212-3 0  9991
2 45131  87.8480  67.7330 0001709 114.8498 245.2807 13.09454969296396
ONEWEB-0017             
1 45132U 20008B   26094.23838562  .00000293  00000+0  80230-3 0  9992
2 45132  87.8820  50.9848 0002085  77.5034 282.6327 13.10375663298267
ONEWEB-0020             
1 45133U 20008C   26094.28484160 -.00000525  00000+0 -15409-2 0  9994
2 45133  87.8824  50.9682 0001877  81.4640 278.6701 13.10373479298661
ONEWEB-0021             
1 45134U 20008D   26093.84163681 -.00000295  00000+0 -88202-3 0  9994
2 45134  87.8822  51.0789 0001941  83.5680 276.5668 13.10376940298912
ONEWEB-0023             
1 45136U 20008F   26094.23423060  .00000078  00000+0  18743-3 0  9990
2 45136  87.8824  50.9796 0001822  85.2386 274.8950 13.10375064298395
ONEWEB-0024             
1 45137U 20008G   26093.90139505 -.00000644  00000+0 -18826-2 0  9994
2 45137  87.8822  51.0343 0001912  81.1703 278.9641 13.10372841298518
ONEWEB-0025             
1 45138U 20008H   26094.28103999 -.00000379  00000+0 -11136-2 0  9997
2 45138  87.8824  50.9453 0001862  91.6624 268.4717 13.10875759298898
ONEWEB-0026             
1 45139U 20008J   26094.22699579  .00000033  00000+0  58419-4 0  9998
2 45139  87.8910  35.7668 0001921  74.6142 285.5198 13.11416214301410
ONEWEB-0028             
1 45140U 20008K   26094.26004692  .00000223  00000+0  59468-3 0  9995
2 45140  87.8902  35.7659 0001618  98.1384 261.9928 13.11424213298934
ONEWEB-0032             
1 45141U 20008L   26094.24003687  .00000335  00000+0  92297-3 0  9998
2 45141  87.8820  50.9856 0001601  96.2023 263.9286 13.10376412298613
